KUIPER-00027            
1 63740U 25088S   25242.25001157  .00008959  00000+0  56731-3 0  9994
2 63740  51.8873 224.5079 0001602 249.4906 102.9345 15.09646532  4780
KUIPER-00028            
1 63741U 25088T   25242.25001157 -.01341474  00000+0 -75885-1 0  9999
2 63741  51.8849 223.6425 0001619 217.8724 161.8154 15.15492886  4920
KUIPER-00029            
1 63742U 25088U   25242.25001157 -.00844504  00000+0 -40582-1 0  9997
2 63742  51.8802 223.3905 0002945 184.9823 281.8536 15.21173237  3645
KUIPER-00030            
1 63743U 25088V   25242.26460487 -.00001788  00000+0 -20476-3 0  9995
2 63743  51.9001 237.0111 0014204 162.8276 197.3170 14.79927726 19281
KUIPER-00031            
1 63744U 25088W   25242.25001157 -.00008650  00000+0 -55914-3 0  9990
2 63744  51.8971 225.2549 0002491 148.0741 132.5322 15.06587776  5192
KUIPER-00032            
1 63745U 25088X   25241.38267064  .00020146  00000+0  70486-3 0  9998
2 63745  51.8711 228.2872 0004769 141.2575 218.8751 15.29493328 20046
KUIPER-00033            
1 63746U 25088Y   25241.77407885  .00002839  00000+0  40128-3 0  9998
2 63746  51.8987 255.2419 0002714 273.4025  86.6627 14.79939131 19182
KUIPER-00034            
1 63747U 25088Z   25242.25001157 -.00337426  00000+0 -13017-1 0  9995
2 63747  51.8748 222.1444 0001178  76.4987 321.8129 15.27267359  5669
